[{"OBJECT_NAME":"STARLINK-35412","OBJECT_ID":"2025-218G","EPOCH":"2026-03-09T14:52:34.621824","MEAN_MOTION":15.05646955,"ECCENTRICITY":0.0002332,"INCLINATION":97.602,"RA_OF_ASC_NODE":292.9533,"ARG_OF_PERICENTER":89.3705,"MEAN_ANOMALY":270.7789,"EPHEMERIS_TYPE":0,"CLASSIFICATION_TYPE":"U","NORAD_CAT_ID":65797,"ELEMENT_SET_NO":999,"REV_AT_EPOCH":2496,"BSTAR":0.00030089,"MEAN_MOTION_DOT":4.283e-5,"MEAN_MOTION_DDOT":0},{"OBJECT_NAME":"OBJECT Z","OBJECT_ID":"2017-042Z","EPOCH":"2026-03-09T21:17:53.130336","MEAN_MOTION":15.06776019,"ECCENTRICITY":0.00062541,"INCLINATION":97.3821,"RA_OF_ASC_NODE":235.9429,"ARG_OF_PERICENTER":50.1524,"MEAN_ANOMALY":310.0253,"EPHEMERIS_TYPE":0,"CLASSIFICATION_TYPE":"U","NORAD_CAT_ID":42848,"ELEMENT_SET_NO":999,"REV_AT_EPOCH":47228,"BSTAR":0.00039314781,"MEAN_MOTION_DOT":5.795e-5,"MEAN_MOTION_DDOT":0}]
